GLOBALSTAR M045         
1 25676U 99019A   24149.88445225 -.00000046  00000+0  42106-3 0  9998
2 25676  51.9984 320.5919 0001020 132.3305  16.0714 12.27038393146450
GLOBALSTAR M019         
1 25677U 99019B   24150.15448559 -.00000087  00000+0  30037-4 0  9990
2 25677  51.9896  63.1672 0000545 304.4337 203.8183 12.13858288138698
GLOBALSTAR M044         
1 25678U 99019C   24149.82068831 -.00000074  00000+0  12872-3 0  9996
2 25678  51.9986 327.3718 0006417  25.5604  79.1533 11.90233284125558
GLOBALSTAR M042         
1 25679U 99019D   24150.46495721 -.00000049  00000+0  40395-3 0  9994
2 25679  52.0036  54.1908 0002275 224.7753 183.3048 12.22062416138410
GLOBALSTAR M025         
1 25770U 99031A   24149.92399628 -.00000069  00000+0 -50819-4 0  9994
2 25770  51.9838 329.4402 0001290 191.9286 339.2217 11.22550690438552
GLOBALSTAR M049         
1 25771U 99031B   24149.92341076 -.00000080  00000+0 -52686-3 0  9995
2 25771  51.9901 344.8941 0003480  89.9206 270.1989 11.12109457 74672
GLOBALSTAR M047         
1 25772U 99031C   24149.92167544 -.00000054  00000+0  41876-3 0  9991
2 25772  51.9866  18.5785 0016147 325.5793  34.3966 11.31921017427591
GLOBALSTAR M052         
1 25773U 99031D   24149.59038380 -.00000072  00000+0 -22145-3 0  9999
2 25773  51.9857  99.7293 0002605 264.2951 267.6814 11.15051479435608
